NORAD_CAT_ID,OBJECT_NAME,OBJECT_TYPE,EPOCH,MEAN_MOTION,ECCENTRICITY,INCLINATION,RA_OF_ASC_NODE,ARG_OF_PERICENTER,MEAN_ANOMALY,BSTAR,MEAN_MOTION_DOT,MEAN_MOTION_DDOT,TLE_LINE0,TLE_LINE1,TLE_LINE2,SEMIMAJOR_AXIS,PERIOD,APOGEE,PERIGEE,DECAYED
52682.0,STARLINK-4017,PAYLOAD,2023-06-16 15:25:46,15.08855412,9.84e-05,53.2163,300.0358,94.2676,265.8429,0.00030981,4.648e-05,0.0,0 STARLINK-4017,1 52682U 22053AC  23167.64289862  .00004648  00000-0  30981-3 0  9995,2 52682  53.2163 300.0358 0000984  94.2676 265.8429 15.08855412 60224,6917.833,95.437,540.379,539.018,0.0
52682.0,STARLINK-4017,PAYLOAD,2023-06-16 18:36:32,15.08862543,0.0001082,53.2163,299.441,99.4121,260.6994,0.00019902,2.883e-05,0.0,0 STARLINK-4017,1 52682U 22053AC  23167.77537344  .00002883  00000-0  19902-3 0  9999,2 52682  53.2163 299.4410 0001082  99.4121 260.6994 15.08862543 60656,6917.811,95.436,540.425,538.928,0.0
52682.0,STARLINK-4017,PAYLOAD,2023-06-17 08:55:02,15.0882731,8.97e-05,53.216,296.7659,102.219,257.8903,-0.00011514,-2.119e-05,0.0,0 STARLINK-4017,1 52682U 22053AC  23168.37155326 -.00002119  00000-0 -11514-3 0  9997,2 52682  53.2160 296.7659 0000897 102.2190 257.8903 15.08827310 60336,6917.919,95.438,540.405,539.164,0.0
52682.0,STARLINK-4017,PAYLOAD,2023-06-17 15:16:35,15.08825526,9.85e-05,53.2165,295.5757,104.7688,255.3414,-0.00013522,-2.438e-05,0.0,0 STARLINK-4017,1 52682U 22053AC  23168.63651655 -.00002438  00000-0 -13522-3 0  9997,2 52682  53.2165 295.5757 0000985 104.7688 255.3414 15.08825526 60780,6917.925,95.438,540.471,539.108,0.0
52682.0,STARLINK-4017,PAYLOAD,2023-06-18 08:45:49,15.08834391,9.16e-05,53.2171,292.3048,106.8088,253.3004,6.5444e-05,7.54e-06,0.0,0 STARLINK-4017,1 52682U 22053AC  23169.36515629  .00000754  00000-0  65444-4 0  9996,2 52682  53.2171 292.3048 0000916 106.8088 253.3004 15.08834391 60486,6917.898,95.438,540.396,539.129,0.0
52682.0,STARLINK-4017,PAYLOAD,2023-06-18 15:07:21,15.08845325,9.23e-05,53.2172,291.1165,107.1719,252.9374,0.00031755,4.77e-05,0.0,0 STARLINK-4017,1 52682U 22053AC  23169.63011359  .00004770  00000-0  31755-3 0  9996,2 52682  53.2172 291.1165 0000923 107.1719 252.9374 15.08845325 60526,6917.864,95.437,540.368,539.091,0.0
52682.0,STARLINK-4017,PAYLOAD,2023-06-19 08:36:36,15.08840498,9.38e-05,53.2178,287.8467,111.1857,248.9236,0.00033951,5.12e-05,0.0,0 STARLINK-4017,1 52682U 22053AC  23170.35875658  .00005120  00000-0  33951-3 0  9997,2 52682  53.2178 287.8467 0000938 111.1857 248.9236 15.08840498 60633,6917.879,95.438,540.393,539.095,0.0
52682.0,STARLINK-4017,PAYLOAD,2023-06-19 14:58:08,15.08845769,0.0001,53.218,286.6579,113.1692,246.9405,0.00033263,5.011e-05,0.0,0 STARLINK-4017,1 52682U 22053AC  23170.62371403  .00005011  00000-0  33263-3 0  9991,2 52682  53.2180 286.6579 0001000 113.1692 246.9405 15.08845769 61089,6917.863,95.437,540.42,539.036,0.0
52682.0,STARLINK-4017,PAYLOAD,2023-06-20 08:27:23,15.08842817,9.92e-05,53.2172,283.3874,116.1615,243.948,-0.00015054,-2.683e-05,0.0,0 STARLINK-4017,1 52682U 22053AC  23171.35235420 -.00002683  00000-0 -15054-3 0  9992,2 52682  53.2172 283.3874 0000992 116.1615 243.9480 15.08842817 61192,6917.872,95.437,540.423,539.051,0.0
52682.0,STARLINK-4017,PAYLOAD,2023-06-20 16:24:18,15.08848079,7.21e-05,53.2169,281.8982,107.0944,253.0127,7.3749e-05,8.87e-06,0.0,0 STARLINK-4017,1 52682U 22053AC  23171.68354977  .00000887  00000-0  73749-4 0  9995,2 52682  53.2169 281.8982 0000721 107.0944 253.0127 15.08848079 60831,6917.856,95.437,540.219,539.222,0.0
52682.0,STARLINK-4017,PAYLOAD,2023-06-21 11:28:56,15.08841854,0.00011,53.2171,278.3304,115.7724,244.3382,4.0047e-05,3.5e-06,0.0,0 STARLINK-4017,1 52682U 22053AC  23172.47843283  .00000350  00000-0  40047-4 0  9996,2 52682  53.2171 278.3304 0001100 115.7724 244.3382 15.08841854 60950,6917.875,95.437,540.501,538.979,0.0
52682.0,STARLINK-4017,PAYLOAD,2023-06-21 13:04:19,15.08843793,0.0001121,53.2172,278.0328,115.694,244.4168,3.8071e-05,3.18e-06,0.0,0 STARLINK-4017,1 52682U 22053AC  23172.54467214  .00000318  00000-0  38071-4 0  9998,2 52682  53.2172 278.0328 0001121 115.6940 244.4168 15.08843793 61370,6917.869,95.437,540.509,538.958,0.0
52682.0,STARLINK-4017,PAYLOAD,2023-06-21 14:39:42,15.08845577,8.88e-05,53.2162,277.7353,91.8629,268.2465,5.9082e-05,6.53e-06,0.0,0 STARLINK-4017,1 52682U 22053AC  23172.61091157  .00000653  00000-0  59082-4 0  9992,2 52682  53.2162 277.7353 0000888  91.8629 268.2465 15.08845577 61388,6917.863,95.437,540.343,539.114,0.0
52682.0,STARLINK-4017,PAYLOAD,2023-06-22 06:33:34,15.08835232,8.53e-05,53.2178,274.7632,105.0652,255.0435,5.9039e-05,6.52e-06,0.0,0 STARLINK-4017,1 52682U 22053AC  23173.27331792  .00000652  00000-0  59039-4 0  9998,2 52682  53.2178 274.7632 0000853 105.0652 255.0435 15.08835232 61072,6917.895,95.438,540.35,539.17,0.0
52682.0,STARLINK-4017,PAYLOAD,2023-06-23 06:24:21,15.08848694,8.42e-05,53.2165,270.301,81.315,278.7938,0.00016868,2.398e-05,0.0,0 STARLINK-4017,1 52682U 22053AC  23174.26691505  .00002398  00000-0  16868-3 0  9990,2 52682  53.2165 270.3010 0000842  81.3150 278.7938 15.08848694 61220,6917.854,95.437,540.301,539.136,0.0
52682.0,STARLINK-4017,PAYLOAD,2023-06-24 06:15:08,15.0884288,0.0001382,53.2157,265.8412,79.594,280.5208,0.0001351,1.863e-05,0.0,0 STARLINK-4017,1 52682U 22053AC  23175.26051764  .00001863  00000-0  13510-3 0  9995,2 52682  53.2157 265.8412 0001382  79.5940 280.5208 15.08842880 61370,6917.872,95.437,540.693,538.781,0.0
52682.0,STARLINK-4017,PAYLOAD,2023-06-25 09:16:41,15.08846723,0.0001036,53.2156,260.7869,74.0578,286.0529,0.00027373,4.072e-05,0.0,0 STARLINK-4017,1 52682U 22053AC  23176.38659640  .00004072  00000-0  27373-3 0  9993,2 52682  53.2156 260.7869 0001036  74.0578 286.0529 15.08846723 61548,6917.86,95.437,540.442,539.008,0.0
52682.0,STARLINK-4017,PAYLOAD,2023-06-25 21:59:47,15.08829653,0.0001157,53.2161,258.4066,82.8452,277.2672,-0.00015632,-2.774e-05,0.0,0 STARLINK-4017,1 52682U 22053AC  23176.91652038 -.00002774  00000-0 -15632-3 0  9990,2 52682  53.2161 258.4066 0001157  82.8452 277.2672 15.08829653 61622,6917.912,95.438,540.577,538.977,0.0
52682.0,STARLINK-4017,PAYLOAD,2023-06-26 09:07:29,15.08837867,9.28e-05,53.2163,256.3254,86.9249,273.1849,0.00010139,1.326e-05,0.0,0 STARLINK-4017,1 52682U 22053AC  23177.38019974  .00001326  00000-0  10139-3 0  9995,2 52682  53.2163 256.3254 0000928  86.9249 273.1849 15.08837867 61698,6917.887,95.438,540.394,539.11,0.0
52682.0,STARLINK-4017,PAYLOAD,2023-06-27 12:09:02,15.08839734,0.0001236,53.2163,251.2703,97.887,262.2262,0.00028846,4.306e-05,0.0,0 STARLINK-4017,1 52682U 22053AC  23178.50628310  .00004306  00000-0  28846-3 0  9995,2 52682  53.2163 251.2703 0001236  97.8870 262.2262 15.08839734 61867,6917.881,95.438,540.601,538.891,0.0
52682.0,STARLINK-4017,PAYLOAD,2023-06-28 21:32:08,15.08836142,0.0001015,53.2156,245.0244,95.0466,265.0642,3.4622e-05,2.63e-06,0.0,0 STARLINK-4017,1 52682U 22053AC  23179.89732403  .00000263  00000-0  34622-4 0  9995,2 52682  53.2156 245.0244 0001015  95.0466 265.0642 15.08836142 62073,6917.892,95.438,540.459,539.055,0.0
52682.0,STARLINK-4017,PAYLOAD,2023-06-29 13:25:59,15.08848282,9.55e-05,53.2153,242.052,94.2371,265.873,0.00024794,3.661e-05,0.0,0 STARLINK-4017,1 52682U 22053AC  23180.55972021  .00003661  00000-0  24794-3 0  9995,2 52682  53.2153 242.0520 0000955  94.2371 265.8730 15.08848282 62177,6917.855,95.437,540.381,539.059,0.0
52682.0,STARLINK-4017,PAYLOAD,2023-06-30 13:16:46,15.08851497,0.0001013,53.215,237.5909,92.2923,267.8185,0.00041278,6.29e-05,0.0,0 STARLINK-4017,1 52682U 22053AC  23181.55331772  .00006290  00000-0  41278-3 0  9995,2 52682  53.2150 237.5909 0001013  92.2923 267.8185 15.08851497 62326,6917.845,95.437,540.411,539.009,0.0
52682.0,STARLINK-4017,PAYLOAD,2023-06-30 21:13:42,15.08840058,0.0001021,53.2147,236.1035,91.4354,268.6755,2.195e-05,6.2e-07,0.0,0 STARLINK-4017,1 52682U 22053AC  23181.88451980  .00000062  00000-0  21950-4 0  9992,2 52682  53.2147 236.1035 0001021  91.4354 268.6755 15.08840058 62373,6917.88,95.438,540.452,539.039,0.0
52682.0,STARLINK-4017,PAYLOAD,2023-07-01 09:56:48,15.08834323,0.0001087,53.2151,233.726,95.4572,264.6544,-1.5659e-05,-5.37e-06,0.0,0 STARLINK-4017,1 52682U 22053AC  23182.41444525 -.00000537  00000-0 -15659-4 0  9997,2 52682  53.2151 233.7260 0001087  95.4572 264.6544 15.08834323 62458,6917.898,95.438,540.515,539.011,0.0
52682.0,STARLINK-4017,PAYLOAD,2023-07-02 12:58:21,15.08841721,0.0001076,53.2165,228.67,97.3764,262.7351,3.7355e-05,3.07e-06,0.0,0 STARLINK-4017,1 52682U 22053AC  23183.54052434  .00000307  00000-0  37355-4 0  9996,2 52682  53.2165 228.6700 0001076  97.3764 262.7351 15.08841721 62621,6917.875,95.437,540.484,538.996,0.0
52682.0,STARLINK-4017,PAYLOAD,2023-07-04 01:32:13,15.08838334,9.67e-05,53.2163,221.8322,91.0093,269.101,0.00010928,1.452e-05,0.0,0 STARLINK-4017,1 52682U 22053AC  23185.06404789  .00001452  00000-0  10928-3 0  9997,2 52682  53.2163 221.8322 0000967  91.0093 269.1010 15.08838334 62852,6917.885,95.438,540.419,539.082,0.0
52682.0,STARLINK-4017,PAYLOAD,2023-07-05 09:19:56,15.08837074,9.53e-05,53.2161,215.8845,87.2027,272.9074,-2.3994e-06,-3.26e-06,0.0,0 STARLINK-4017,1 52682U 22053AC  23186.38885231 -.00000326  00000-0 -23994-5 0  9998,2 52682  53.2161 215.8845 0000953  87.2027 272.9074 15.08837074 63057,6917.889,95.438,540.414,539.095,0.0
52682.0,STARLINK-4017,PAYLOAD,2023-07-06 10:46:06,15.08838697,9.27e-05,53.216,211.1263,86.4235,273.6863,9.7079e-05,1.258e-05,0.0,0 STARLINK-4017,1 52682U 22053AC  23187.44869106  .00001258  00000-0  97079-4 0  9996,2 52682  53.2160 211.1263 0000927  86.4235 273.6863 15.08838697 63216,6917.884,95.438,540.391,539.108,0.0
52682.0,STARLINK-4017,PAYLOAD,2023-07-07 18:33:49,15.08842853,9.18e-05,53.2159,205.1785,81.6494,278.4602,0.00010637,1.406e-05,0.0,0 STARLINK-4017,1 52682U 22053AC  23188.77349085  .00001406  00000-0  10637-3 0  9991,2 52682  53.2159 205.1785 0000918  81.6494 278.4602 15.08842853 63415,6917.872,95.437,540.372,539.102,0.0
